[{"OBJECT_NAME":"NANOACE","OBJECT_ID":"2017-042V","EPOCH":"2026-03-09T10:49:24.913920","MEAN_MOTION":15.22047259,"ECCENTRICITY":0.0004338,"INCLINATION":97.3683,"RA_OF_ASC_NODE":244.5146,"ARG_OF_PERICENTER":18.2396,"MEAN_ANOMALY":341.8995,"EPHEMERIS_TYPE":0,"CLASSIFICATION_TYPE":"U","NORAD_CAT_ID":42844,"ELEMENT_SET_NO":999,"REV_AT_EPOCH":47289,"BSTAR":0.00068471795,"MEAN_MOTION_DOT":0.0001561,"MEAN_MOTION_DDOT":0},{"OBJECT_NAME":"STARLINK-30150","OBJECT_ID":"2023-119V","EPOCH":"2026-03-09T22:00:01.999584","MEAN_MOTION":15.20981294,"ECCENTRICITY":0.00011353,"INCLINATION":43.0002,"RA_OF_ASC_NODE":79.6586,"ARG_OF_PERICENTER":273.1644,"MEAN_ANOMALY":263.6875,"EPHEMERIS_TYPE":0,"CLASSIFICATION_TYPE":"U","NORAD_CAT_ID":57621,"ELEMENT_SET_NO":999,"REV_AT_EPOCH":578,"BSTAR":0.046473955,"MEAN_MOTION_DOT":0.0113976,"MEAN_MOTION_DDOT":0}]
